0 SECOR 13 (EGRS 13)
1 03891U 69037B   13283.17987315 -.00000043  00000-0  26650-5 0  1268
2 03891 099.9934 188.4230 0039768 022.8823 137.7493 13.42789811180377
0 SECOR 13 (EGRS 13)
1 03891U 69037B   13285.33128571 -.00000025  00000-0  35155-4 0  1279
2 03891 099.9936 190.5536 0039709 017.6929 097.7422 13.42789897180669
0 SECOR 13 (EGRS 13)
1 03891U 69037B   13287.69766057 -.00000012  00000-0  57814-4 0  1280
2 03891 099.9936 192.8970 0039637 011.9751 016.8791 13.42789811180988
0 SECOR 13 (EGRS 13)
1 03891U 69037B   13289.71451868 -.00000008  00000-0  64487-4 0  1296
2 03891 099.9935 194.8945 0039576 007.1009 046.4408 13.42789865181250
0 SECOR 13 (EGRS 13)
1 03891U 69037B   13291.72646958 -.00000001  00000-0  76142-4 0  1302
2 03891 099.9932 196.8873 0039516 002.2009 052.3194 13.42790106181527
0 SECOR 13 (EGRS 13)
1 03891U 69037B   13293.73916815 -.00000017  00000-0  49218-4 0  1319
2 03891 099.9931 198.8806 0039448 357.3087 061.8028 13.42790274181794
0 SECOR 13 (EGRS 13)
1 03891U 69037B   13295.75184355 -.00000028  00000-0  29160-4 0  1326
2 03891 099.9931 200.8740 0039385 352.3752 071.2168 13.42790465182062
